OBJECT_NAME,OBJECT_ID,EPOCH,MEAN_MOTION,ECCENTRICITY,INCLINATION,RA_OF_ASC_NODE,ARG_OF_PERICENTER,MEAN_ANOMALY,EPHEMERIS_TYPE,CLASSIFICATION_TYPE,NORAD_CAT_ID,ELEMENT_SET_NO,REV_AT_EPOCH,BSTAR,MEAN_MOTION_DOT,MEAN_MOTION_DDOT
DUBAISAT-1,2009-041B,2026-06-16T14:44:30.780960,14.75121744,.00116664,98.0051,300.8782,75.3877,284.8625,0,U,35682,999,90501,.93186797E-4,.578E-5,0
OCEANSAT-2,2009-051A,2026-06-16T15:03:49.793760,13.99664520,.0015159,98.2324,154.5349,237.6615,122.3085,0,U,35931,999,87925,-.58740246E-4,-.124E-5,0
WORLDVIEW-2 (WV-2),2009-055A,2026-06-16T12:54:02.046816,14.37899273,.00036741,98.4737,240.9960,210.1733,149.9243,0,U,35946,999,87555,.46913086E-4,.98E-6,0
SMOS,2009-059A,2026-06-16T11:52:11.073504,14.39772255,.00013186,98.4424,354.8396,89.0835,271.0504,0,U,36036,999,87335,.74687983E-4,.191E-5,0
YAOGAN-7,2009-069A,2026-06-16T14:45:26.670528,14.78009348,.00255976,98.0072,53.4854,43.4974,316.8250,0,U,36110,999,88954,.6299371E-4,.404E-5,0
TANDEM-X,2010-030A,2026-06-15T13:04:49.708992,15.19149123,.0001884,97.4452,174.2763,86.9240,273.2210,0,U,36605,999,88639,.21672042E-4,.388E-5,0
CARTOSAT-2B,2010-035A,2026-06-16T14:17:15.399168,14.78662631,.00110944,97.9954,218.1489,185.6346,174.4742,0,U,36795,999,85976,.1292354E-3,.895E-5,0
YAOGAN-10,2010-038A,2026-06-16T15:02:27.877056,14.85346053,.00016419,97.8970,191.0350,84.0495,65.6016,0,U,36834,999,85712,.11581556E-3,.942E-5,0
COSMO-SKYMED 4,2010-060A,2026-06-16T15:12:25.447104,14.82152318,.00014214,97.8878,351.2412,81.4585,278.6789,0,U,37216,999,84448,-.4966708E-5,-.92E-6,0
RESOURCESAT-2,2011-015A,2026-06-16T14:18:42.932736,14.21606355,.0010189,98.7644,235.0422,257.3957,102.6081,0,U,37387,999,78609,.53741749E-4,.74E-6,0
HAIYANG-2A,2011-043A,2026-06-16T07:26:58.348320,13.74405271,.0006063,99.3386,170.0056,93.3795,266.8048,0,U,37781,999,74653,.27286235E-3,.214E-5,0
RASAT,2011-044D,2026-06-16T13:49:21.978912,14.68165371,.00201336,98.0583,258.9820,190.6721,293.5182,0,U,37791,999,79309,.54858627E-4,.267E-5,0
SRMSAT,2011-058D,2026-06-16T09:23:02.445792,14.11575402,.00118046,19.9721,64.2860,194.8507,321.4366,0,U,37841,999,75770,.48036889E-4,.354E-5,0
PLEIADES 1A,2011-076F,2026-06-16T15:47:36.935232,14.58571380,.00016479,98.1982,242.7680,95.3116,32.7404,0,U,38012,999,77191,.1022276E-3,.43E-5,0
ZIYUAN 1-02C (ZY 1-02C),2011-079A,2026-06-16T16:03:00.666144,14.38215632,.00055354,98.4076,234.9880,318.9534,157.8321,0,U,38038,999,75913,.23131701E-3,.66E-5,0
ARIRANG-3 (KOMPSAT-3),2012-025B,2026-06-16T14:55:51.763296,14.62205700,.00066584,98.1170,125.0918,110.7616,249.4299,0,U,38338,999,75126,.77735973E-4,.345E-5,0
EXACTVIEW-1 (ADS-1B),2012-039C,2026-06-16T07:52:19.499808,14.24984344,.00111163,98.9776,284.6988,168.8046,191.3382,0,U,38709,999,72258,.60123452E-4,.94E-6,0
SPOT 6,2012-047A,2026-06-16T15:34:35.175936,14.58563999,.00015,98.2123,234.9642,90.2487,269.8884,0,U,38755,999,73297,.13235616E-3,.57E-5,0
PLEIADES 1B,2012-068A,2026-06-16T14:23:02.479200,14.58561461,.00016741,98.1953,242.6590,91.0570,269.0821,0,U,39019,999,72076,.12943127E-3,.556E-5,0
GOKTURK 2,2012-073A,2026-06-16T14:32:47.244768,14.75542588,.00016157,97.6811,5.0667,56.4250,303.7114,0,U,39030,999,72442,.51641847E-4,.305E-5,0
LANDSAT 8,2013-008A,2026-06-16T13:03:25.220160,14.57094148,.00013603,98.2302,237.6869,93.5771,266.5583,0,U,39084,999,69780,.69843805E-4,.269E-5,0
SARAL,2013-009A,2026-06-16T14:55:34.608576,14.32855808,.00007372,98.5556,354.1963,313.5966,46.5157,0,U,39086,999,69552,.40413847E-4,.67E-6,0
GAOFEN-1,2013-018A,2026-06-16T14:07:38.095968,14.76537824,.00156715,97.9101,239.6687,268.5527,91.3888,0,U,39150,999,70815,.12535161E-3,.824E-5,0
VNREDSAT 1,2013-021B,2026-06-16T14:39:38.787840,14.64857418,.0001722,97.9082,221.0494,88.9399,271.2002,0,U,39160,999,70020,.13754716E-3,.689E-5,0
ARIRANG-5 (KOMPSAT-5),2013-042A,2026-06-16T04:02:35.294784,15.04487529,.00052806,97.6201,353.8833,122.0593,238.1146,0,U,39227,999,70370,.66252969E-4,.866E-5,0
SKYSAT-A,2013-066C,2026-06-16T14:18:11.193696,15.12973520,.00201346,97.3813,217.0121,319.7048,40.2690,0,U,39418,999,68839,.13131286E-3,.2262E-4,0
DUBAISAT-2,2013-066D,2026-06-16T14:34:03.338112,15.10174919,.00124455,97.4554,157.7666,42.2697,317.9490,0,U,39419,999,68630,.11121699E-3,.1756E-4,0
GPM-CORE,2014-009C,2026-06-16T13:29:12.361632,15.44559355,.00118894,64.9727,310.2204,251.3543,108.6307,0,U,39574,999,69771,.2070647E-3,.9451E-4,0
SENTINEL-1A,2014-016A,2026-06-16T14:43:01.320672,14.59200098,.00014173,98.1770,175.1541,80.8097,279.3263,0,U,39634,999,64993,.6597633E-4,.265E-5,0
KAZEOSAT 1,2014-024A,2026-06-16T14:31:45.332256,14.42080649,.00013796,98.3211,240.0671,73.0571,287.0770,0,U,39731,999,63847,.12178613E-3,.357E-5,0
