DUBAISAT-1              
1 35682U 09041B   26167.61424515  .00000578  00000+0  93187-4 0  9999
2 35682  98.0051 300.8782 0011666  75.3877 284.8625 14.75121744905010
OCEANSAT-2              
1 35931U 09051A   26167.62765965 -.00000124  00000+0 -58740-4 0  9990
2 35931  98.2324 154.5349 0015159 237.6615 122.3085 13.99664520879250
WORLDVIEW-2 (WV-2)      
1 35946U 09055A   26167.53752369  .00000098  00000+0  46913-4 0  9991
2 35946  98.4737 240.9960 0003674 210.1733 149.9243 14.37899273875559
SMOS                    
1 36036U 09059A   26167.49457261  .00000191  00000+0  74688-4 0  9998
2 36036  98.4424 354.8396 0001318  89.0835 271.0504 14.39772255873355
YAOGAN-7                
1 36110U 09069A   26167.61489202  .00000404  00000+0  62994-4 0  9990
2 36110  98.0072  53.4854 0025597  43.4974 316.8250 14.78009348889540
TANDEM-X                
1 36605U 10030A   26166.54501978  .00000388  00000+0  21672-4 0  9994
2 36605  97.4452 174.2763 0001884  86.9240 273.2210 15.19149123886390
CARTOSAT-2B             
1 36795U 10035A   26167.59531712  .00000895  00000+0  12924-3 0  9996
2 36795  97.9954 218.1489 0011094 185.6346 174.4742 14.78662631859764
YAOGAN-10               
1 36834U 10038A   26167.62671154  .00000942  00000+0  11582-3 0  9994
2 36834  97.8970 191.0350 0001641  84.0495  65.6016 14.85346053857123
COSMO-SKYMED 4          
1 37216U 10060A   26167.63362786 -.00000092  00000+0 -49667-5 0  9998
2 37216  97.8878 351.2412 0001421  81.4585 278.6789 14.82152318844485
RESOURCESAT-2           
1 37387U 11015A   26167.59633024  .00000074  00000+0  53742-4 0  9995
2 37387  98.7644 235.0422 0010189 257.3957 102.6081 14.21606355786094
HAIYANG-2A              
1 37781U 11043A   26167.31039755  .00000214  00000+0  27286-3 0  9994
2 37781  99.3386 170.0056 0006063  93.3795 266.8048 13.74405271746539
RASAT                   
1 37791U 11044D   26167.57594883  .00000267  00000+0  54859-4 0  9997
2 37791  98.0583 258.9820 0020133 190.6721 293.5182 14.68165371793091
SRMSAT                  
1 37841U 11058D   26167.39100053  .00000354  00000+0  48037-4 0  9998
2 37841  19.9721  64.2860 0011804 194.8507 321.4366 14.11575402757709
PLEIADES 1A             
1 38012U 11076F   26167.65806638  .00000430  00000+0  10223-3 0  9990
2 38012  98.1982 242.7680 0001647  95.3116  32.7404 14.58571380771912
ZIYUAN 1-02C (ZY 1-02C) 
1 38038U 11079A   26167.66875771  .00000660  00000+0  23132-3 0  9994
2 38038  98.4076 234.9880 0005535 318.9534 157.8321 14.38215632759130
ARIRANG-3 (KOMPSAT-3)   
1 38338U 12025B   26167.62212689  .00000345  00000+0  77736-4 0  9998
2 38338  98.1170 125.0918 0006658 110.7616 249.4299 14.62205700751263
EXACTVIEW-1 (ADS-1B)    
1 38709U 12039C   26167.32800347  .00000094  00000+0  60123-4 0  9999
2 38709  98.9776 284.6988 0011116 168.8046 191.3382 14.24984344722587
SPOT 6                  
1 38755U 12047A   26167.64901824  .00000570  00000+0  13236-3 0  9997
2 38755  98.2123 234.9642 0001500  90.2487 269.8884 14.58563999732973
PLEIADES 1B             
1 39019U 12068A   26167.59933425  .00000556  00000+0  12943-3 0  9998
2 39019  98.1953 242.6590 0001674  91.0570 269.0821 14.58561461720768
GOKTURK 2               
1 39030U 12073A   26167.60610237  .00000305  00000+0  51642-4 0  9994
2 39030  97.6811   5.0667 0001615  56.4250 303.7114 14.75542588724425
LANDSAT 8               
1 39084U 13008A   26167.54404190  .00000269  00000+0  69844-4 0  9996
2 39084  98.2302 237.6869 0001360  93.5771 266.5583 14.57094148697801
SARAL                   
1 39086U 13009A   26167.62192834  .00000067  00000+0  40414-4 0  9995
2 39086  98.5556 354.1963 0000737 313.5966  46.5157 14.32855808695526
GAOFEN-1                
1 39150U 13018A   26167.58863537  .00000824  00000+0  12535-3 0  9990
2 39150  97.9101 239.6687 0015671 268.5527  91.3888 14.76537824708158
VNREDSAT 1              
1 39160U 13021B   26167.61086560  .00000689  00000+0  13755-3 0  9996
2 39160  97.9082 221.0494 0001722  88.9399 271.2002 14.64857418700207
ARIRANG-5 (KOMPSAT-5)   
1 39227U 13042A   26167.16846406  .00000866  00000+0  66253-4 0  9995
2 39227  97.6201 353.8833 0005280 122.0593 238.1146 15.04487529703707
SKYSAT-A                
1 39418U 13066C   26167.59596289  .00002262  00000+0  13131-3 0  9999
2 39418  97.3813 217.0121 0020134 319.7048  40.2690 15.12973520688394
DUBAISAT-2              
1 39419U 13066D   26167.60698308  .00001756  00000+0  11122-3 0  9992
2 39419  97.4554 157.7666 0012445  42.2697 317.9490 15.10174919686300
GPM-CORE                
1 39574U 14009C   26167.56194863  .00009451  00000+0  20706-3 0  9992
2 39574  64.9727 310.2204 0011889 251.3543 108.6307 15.44559355697718
SENTINEL-1A             
1 39634U 14016A   26167.61320973  .00000265  00000+0  65976-4 0  9999
2 39634  98.1770 175.1541 0001417  80.8097 279.3263 14.59200098649939
KAZEOSAT 1              
1 39731U 14024A   26167.60538579  .00000357  00000+0  12179-3 0  9996
2 39731  98.3211 240.0671 0001379  73.0571 287.0770 14.42080649638479
